GLOBALSTAR M023 [+]     
1 25621U 99004A   23324.17221572 -.00000106  00000+0 -13024-4 0  9991
2 25621  52.0132   4.2776 0009519 294.8158 100.5526 12.62448287143199
GLOBALSTAR M040 [-]     
1 25622U 99004B   23323.87629589 -.00000050  00000+0  30084-3 0  9999
2 25622  51.9941   8.4943 0000633 183.0785 348.0465 12.61959895142619
GLOBALSTAR M036 [-]     
1 25623U 99004C   23323.93604225 -.00000003  00000+0  11615-2 0  9993
2 25623  51.9978 316.4947 0011374  32.2976 341.5573 11.86560625110693
GLOBALSTAR M038 [-]     
1 25624U 99004D   23324.18912475 -.00000063  00000+0  26548-3 0  9999
2 25624  51.9977 287.4405 0001655 313.7874  68.5382 12.32488089131438
GLOBALSTAR M022 [-]     
1 25649U 99012A   23324.18348844 -.00000108  00000+0 -25024-3 0  9997
2 25649  52.0055  53.9840 0003319 115.1873 256.1021 12.02472136107289
GLOBALSTAR M041 [-]     
1 25650U 99012B   23323.62701784 -.00000027  00000+0  74961-3 0  9996
2 25650  52.0024 279.4036 0001577 276.2574  83.8082 11.96648320109376
GLOBALSTAR M046 [-]     
1 25651U 99012C   23324.43420593 -.00000193  00000+0 -11509-2 0  9996
2 25651  52.0081  24.4163 0002449 177.0557 196.1649 12.09378768114472
GLOBALSTAR M037 [+]     
1 25652U 99012D   23323.91321934 -.00000073  00000+0  17410-3 0  9992
2 25652  51.9979 135.9061 0001930  27.1181 119.6275 12.62389201138614
